     3.00           N                   E                   RINEX VERSION / TYPE
BRD_USR             ESA                 20190112 161655  UTCPGM / RUN BY / DATE
 GAL   3.6000E+01  1.1719E-01  1.0681E-03  0.0000E+00       IONOSPHERIC CORR
GAUT  2.7939677238E-09-1.776356839E-15 518400 2035 GSTB   0 TIME SYSTEM CORR
GPGA  8.7311491370E-11-3.108624469E-15      0 2036 GSTB   0 TIME SYSTEM CORR
                                                            END OF HEADER
E03 2019 01 12 14 40 00-1.213704817928E-04-4.291678123991E-12 0.000000000000E+00
     5.600000000000E+01-9.968750000000E+00 3.205490664410E-09-2.879885418902E+00
    -5.289912223816E-07 2.583297900856E-04 1.203082501888E-05 5.440625766754E+03
     5.712000000000E+05 2.048909664154E-08 1.241401395477E+00-3.539025783539E-08
     9.524480064482E-01 7.600000000000E+01 6.176241466391E-01-5.567731918383E-09
     1.028614274485E-10 2.580000000000E+02 2.035000000000E+03 0.000000000000E+00
     3.120000000000E+00 0.000000000000E+00-2.095475792885E-09 0.000000000000E+00
     5.719000000000E+05 0.000000000000E+00 0.000000000000E+00 0.000000000000E+00
E05 2019 01 12 14 40 00 1.263016019948E-04-6.579625733139E-12 0.000000000000E+00
     5.600000000000E+01-6.375000000000E+00 3.353353966367E-09-3.108524312046E+00
    -2.998858690262E-07 1.352333929390E-04 1.095421612263E-05 5.440618837357E+03
     5.712000000000E+05 2.235174179077E-08 1.241384863039E+00 2.793967723846E-08
     9.524610542146E-01 1.033437500000E+02 1.633756836256E+00-5.580589596814E-09
     1.385772008681E-10 2.580000000000E+02 2.035000000000E+03 0.000000000000E+00
     3.120000000000E+00 0.000000000000E+00-1.396983861923E-09 0.000000000000E+00
     5.719000000000E+05 0.000000000000E+00 0.000000000000E+00 0.000000000000E+00
E07 2019 01 12 14 40 00-1.112355967052E-04-7.091216502886E-12 0.000000000000E+00
     5.600000000000E+01-3.759375000000E+01 3.289779889680E-09 2.458857677612E+00
    -1.672655344009E-06 1.365991774946E-04 1.192092895508E-05 5.440623115540E+03
     5.712000000000E+05 1.862645149231E-09 1.241402552645E+00-3.725290298462E-09
     9.524921178171E-01 7.971875000000E+01-8.344489112894E-03-5.539873615115E-09
     9.678974596714E-11 2.580000000000E+02 2.035000000000E+03 0.000000000000E+00
     3.120000000000E+00 0.000000000000E+00 0.000000000000E+00 0.000000000000E+00
     5.719000000000E+05 0.000000000000E+00 0.000000000000E+00 0.000000000000E+00
E08 2019 01 12 14 40 00 6.424844323192E-03-7.503331289627E-12 0.000000000000E+00
     5.600000000000E+01-2.809375000000E+01 3.181561096219E-09 2.777961770218E+00
    -1.316890120506E-06 2.155484398827E-04 1.231208443642E-05 5.440620622635E+03
     5.712000000000E+05-1.117587089539E-08 1.232790867397E+00-7.450580596924E-09
     9.584353263813E-01 7.406250000000E+01 4.591570493913E-01-5.490943005531E-09
     8.857511808063E-11 2.580000000000E+02 2.035000000000E+03 0.000000000000E+00
     3.120000000000E+00 0.000000000000E+00-8.614733815193E-09 0.000000000000E+00
     5.719000000000E+05 0.000000000000E+00 0.000000000000E+00 0.000000000000E+00
E09 2019 01 12 14 40 00 6.560400943272E-03-1.131184035330E-11 0.000000000000E+00
     5.600000000000E+01-1.753125000000E+01 3.192632985979E-09-7.811009922202E-01
    -7.860362529755E-07 2.392889000475E-04 1.070275902748E-05 5.440623826981E+03
     5.712000000000E+05-9.313225746155E-09 1.232787533406E+00 3.725290298462E-09
     9.584648992702E-01 1.121562500000E+02 8.996037130199E-02-5.505586472633E-09
     1.539349834385E-10 2.580000000000E+02 2.035000000000E+03 0.000000000000E+00
     3.120000000000E+00 0.000000000000E+00-3.492459654808E-09 0.000000000000E+00
     5.719000000000E+05 0.000000000000E+00 0.000000000000E+00 0.000000000000E+00
E12 2019 01 12 14 40 00 5.926597747020E-03 8.431300102529E-11 0.000000000000E+00
     5.600000000000E+01 2.156250000000E+01 2.877262706684E-09 3.062881870695E+00
     1.048669219017E-06 3.967173397541E-04 3.913417458534E-06 5.440605846405E+03
     5.712000000000E+05-3.911554813385E-08-8.639384841513E-01 2.048909664154E-08
     9.819417676446E-01 2.630312500000E+02-8.545975064450E-01-5.700594595504E-09
     3.021554431299E-10 2.580000000000E+02 2.035000000000E+03 0.000000000000E+00
     3.120000000000E+00 0.000000000000E+00-1.559965312481E-08 0.000000000000E+00
     5.719000000000E+05 0.000000000000E+00 0.000000000000E+00 0.000000000000E+00
E14 2019 01 12 14 40 00 6.460978591349E-03-5.584865903074E-12 0.000000000000E+00
     5.600000000000E+01-7.187500000000E-01 4.272677974188E-09 1.681766624307E+00
    -7.841736078262E-07 1.662634036038E-01 4.388391971588E-06 5.289372148514E+03
     5.712000000000E+05 1.873821020126E-06-1.465810713037E+00-1.274049282074E-06
     8.826406804986E-01 2.024062500000E+02 1.457156374949E+00-5.516301204659E-09
    -1.764359206929E-10 2.580000000000E+02 2.035000000000E+03 0.000000000000E+00
     3.120000000000E+00 5.600000000000E+01 3.329478204250E-08 0.000000000000E+00
     5.719000000000E+05 0.000000000000E+00 0.000000000000E+00 0.000000000000E+00
E18 2019 01 12 14 40 00 5.611698492430E-03-2.849276370398E-11 0.000000000000E+00
     5.600000000000E+01 9.209375000000E+01 2.381170613885E-09-1.490222911252E+00
     6.387010216713E-06 1.663065197645E-01 4.608184099197E-06 5.289385322571E+03
     5.712000000000E+05 5.189329385757E-06-1.448612443289E+00 2.596527338028E-06
     8.818503741163E-01 2.576562500000E+02 1.441660495655E+00-3.807658604264E-09
    -2.392956819114E-11 2.580000000000E+02 2.035000000000E+03 0.000000000000E+00
     3.120000000000E+00 5.600000000000E+01 1.420266926289E-08 0.000000000000E+00
     5.719000000000E+05 0.000000000000E+00 0.000000000000E+00 0.000000000000E+00
E19 2019 01 12 14 40 00-9.175390005112E-06 2.842170943040E-13 0.000000000000E+00
     5.600000000000E+01-4.037500000000E+01 3.199061825194E-09-1.424327365340E+00
    -1.804903149605E-06 1.327014761046E-04 1.064129173756E-05 5.440617792130E+03
     5.712000000000E+05-7.450580596924E-09 1.238142748381E+00-1.303851604462E-08
     9.582211025094E-01 1.110937500000E+02 2.383380318180E+00-5.482371219910E-09
     1.050043738536E-10 2.580000000000E+02 2.035000000000E+03 0.000000000000E+00
     3.120000000000E+00 0.000000000000E+00-8.614733815193E-09 0.000000000000E+00
     5.719000000000E+05 0.000000000000E+00 0.000000000000E+00 0.000000000000E+00
E21 2019 01 12 14 40 00-5.140755092725E-04-1.961097950698E-12 0.000000000000E+00
     5.600000000000E+01 1.562500000000E-01 2.863690712784E-09-6.974973057225E-01
    -1.471489667892E-07 4.806125070900E-05 6.252899765968E-06 5.440621484756E+03
     5.712000000000E+05 7.636845111847E-08-2.951818765660E+00 3.725290298462E-09
     9.897014918283E-01 2.195000000000E+02 2.890348925834E-01-5.517729835595E-09
    -4.264463346301E-10 2.580000000000E+02 2.035000000000E+03 0.000000000000E+00
     3.120000000000E+00 0.000000000000E+00-2.328306436539E-09 0.000000000000E+00
     5.719000000000E+05 0.000000000000E+00 0.000000000000E+00 0.000000000000E+00
E24 2019 01 12 14 40 00 6.289721233770E-03-1.966782292584E-11 0.000000000000E+00
     5.600000000000E+01 2.218750000000E+00 2.847618614745E-09 3.000071544405E+00
     8.568167686462E-08 4.798470763490E-04 6.686896085739E-06 5.440616924286E+03
     5.712000000000E+05-7.450580596924E-09-2.945750003614E+00-2.607703208923E-08
     9.877056473219E-01 2.095625000000E+02 4.978232147808E-01-5.535587722305E-09
    -4.085884479203E-10 2.580000000000E+02 2.035000000000E+03 0.000000000000E+00
     3.120000000000E+00 0.000000000000E+00 4.260800778866E-08 0.000000000000E+00
     5.719000000000E+05 0.000000000000E+00 0.000000000000E+00 0.000000000000E+00
E25 2019 01 12 14 40 00 1.925993419718E-03-1.129762949859E-11 0.000000000000E+00
     5.600000000000E+01-4.718750000000E+00 2.827974939365E-09-2.220839277887E+00
    -3.371387720108E-07 1.896308967844E-04 7.025897502899E-06 5.440624006271E+03
     5.712000000000E+05-3.725290298462E-09-2.951827587056E+00 2.235174179077E-08
     9.897069134027E-01 2.035312500000E+02-1.327626227407E+00-5.481656904441E-09
    -4.618049503155E-10 2.580000000000E+02 2.035000000000E+03 0.000000000000E+00
     3.120000000000E+00 0.000000000000E+00-1.396983861923E-09 0.000000000000E+00
     5.719000000000E+05 0.000000000000E+00 0.000000000000E+00 0.000000000000E+00
E27 2019 01 12 14 40 00 5.511789931916E-04-7.744915819785E-12 0.000000000000E+00
     5.600000000000E+01 6.250000000000E-01 2.908692587293E-09 1.204335451806E+00
     7.450580596924E-09 1.858824398369E-04 6.256625056267E-06 5.440621051788E+03
     5.712000000000E+05 2.980232238770E-08-2.951803153398E+00 3.539025783539E-08
     9.896738236586E-01 2.170312500000E+02-8.259285501650E-01-5.540230772850E-09
    -4.100170788571E-10 2.580000000000E+02 2.035000000000E+03 0.000000000000E+00
     3.120000000000E+00 0.000000000000E+00-2.561137080193E-09 0.000000000000E+00
     5.719000000000E+05 0.000000000000E+00 0.000000000000E+00 0.000000000000E+00
E30 2019 01 12 14 40 00 5.194291181397E-03-3.046807250939E-11 0.000000000000E+00
     5.600000000000E+01 4.500000000000E+00 2.852975980758E-09 5.639424072192E-01
     2.067536115646E-07 3.128485986963E-04 6.748363375664E-06 5.440611625671E+03
     5.712000000000E+05-3.352761268616E-08-2.945806033377E+00 4.470348358154E-08
     9.876906085241E-01 2.076875000000E+02 5.802565960735E-01-5.497014687012E-09
    -4.232319150224E-10 2.580000000000E+02 2.035000000000E+03 0.000000000000E+00
     3.120000000000E+00 0.000000000000E+00-2.793967723846E-09 0.000000000000E+00
     5.719000000000E+05 0.000000000000E+00 0.000000000000E+00 0.000000000000E+00
